start=new Date('2022-10-21T00:00:00.000Z').valueOf();
sats=[{"COUNTRY_CODE":"US","LAUNCH_DATE":"2022-08-10","TIME_SYSTEM":"UTC","OBJECT_NAME":"STARLINK-4497","DECAY_DATE":null,"PERIOD":"95.437","MEAN_ELEMENT_THEORY":"SGP4","EPHEMERIS_TYPE":"0","BSTAR":"0.00167490000000","REV_AT_EPOCH":"130","ECCENTRICITY":"0.00016870","OBJECT_ID":"2022-097Z","MEAN_ANOMALY":"172.5898","TLE_LINE2":"2 53411  53.2133 261.7202 0001687  48.7647 172.5898 15.08842336  1305","NORAD_CAT_ID":"53411","CLASSIFICATION_TYPE":"U","RA_OF_ASC_NODE":"261.7202","REF_FRAME":"TEME","RCS_SIZE":"LARGE","EPOCH":"2022-10-20T22:00:00.999936","ARG_OF_PERICENTER":"48.7647","SEMIMAJOR_AXIS":"6917.873","OBJECT_TYPE":"PAYLOAD","TLE_LINE1":"1 53411U 22097Z   22293.91667824  .00026470  00000-0  16749-2 0  9993","SITE":"AFETR","FILE":"3626396","GP_ID":"215727584","CENTER_NAME":"EARTH","APOAPSIS":"540.905","PERIAPSIS":"538.571","ELEMENT_SET_NO":"999","MEAN_MOTION":"15.08842336","MEAN_MOTION_DDOT":"0.0000000000000","INCLINATION":"53.2133","MEAN_MOTION_DOT":"0.00026470"},{"ELEMENT_SET_NO":"999","MEAN_MOTION":"15.08838244","INCLINATION":"53.2138","MEAN_MOTION_DDOT":"0.0000000000000","MEAN_MOTION_DOT":"0.00031719","FILE":"3626396","SITE":"AFETR","TLE_LINE1":"1 53412U 22097AA  22293.91667824  .00031719  00000-0  20022-2 0  9995","OBJECT_TYPE":"PAYLOAD","GP_ID":"215727747","CENTER_NAME":"EARTH","APOAPSIS":"540.912","PERIAPSIS":"538.589","OBJECT_ID":"2022-097AA","ECCENTRICITY":"0.00016790","REV_AT_EPOCH":"130","TLE_LINE2":"2 53412  53.2138 261.7192 0001679  50.6978 270.6500 15.08838244  1302","NORAD_CAT_ID":"53412","MEAN_ANOMALY":"270.6500","REF_FRAME":"TEME","RCS_SIZE":"LARGE","CLASSIFICATION_TYPE":"U","RA_OF_ASC_NODE":"261.7192","SEMIMAJOR_AXIS":"6917.886","ARG_OF_PERICENTER":"50.6978","EPOCH":"2022-10-20T22:00:00.999936","COUNTRY_CODE":"US","TIME_SYSTEM":"UTC","LAUNCH_DATE":"2022-08-10","EPHEMERIS_TYPE":"0","BSTAR":"0.00200220000000","MEAN_ELEMENT_THEORY":"SGP4","PERIOD":"95.438","OBJECT_NAME":"STARLINK-4496","DECAY_DATE":null},{"LAUNCH_DATE":"2022-08-10","TIME_SYSTEM":"UTC","DECAY_DATE":null,"OBJECT_NAME":"STARLINK-4500","MEAN_ELEMENT_THEORY":"SGP4","PERIOD":"95.437","EPHEMERIS_TYPE":"0","BSTAR":"0.00064079000000","COUNTRY_CODE":"US","RA_OF_ASC_NODE":"261.7187","CLASSIFICATION_TYPE":"U","RCS_SIZE":"LARGE","REF_FRAME":"TEME","ARG_OF_PERICENTER":"51.6582","EPOCH":"2022-10-20T22:00:00.999936","SEMIMAJOR_AXIS":"6917.871","REV_AT_EPOCH":"130","ECCENTRICITY":"0.00016300","OBJECT_ID":"2022-097AB","MEAN_ANOMALY":"229.7006","TLE_LINE2":"2 53413  53.2143 261.7187 0001630  51.6582 229.7006 15.08843197  1301","NORAD_CAT_ID":"53413","APOAPSIS":"540.863","PERIAPSIS":"538.608","OBJECT_TYPE":"PAYLOAD","TLE_LINE1":"1 53413U 22097AB  22293.91667824  .00009926  00000-0  64079-3 0  9992","SITE":"AFETR","FILE":"3626396","GP_ID":"215728473","CENTER_NAME":"EARTH","INCLINATION":"53.2143","MEAN_MOTION_DDOT":"0.0000000000000","MEAN_MOTION_DOT":"0.00009926","ELEMENT_SET_NO":"999","MEAN_MOTION":"15.08843197"},{"SEMIMAJOR_AXIS":"6917.898","EPOCH":"2022-10-20T22:00:00.999936","ARG_OF_PERICENTER":"65.7087","RCS_SIZE":"LARGE","REF_FRAME":"TEME","CLASSIFICATION_TYPE":"U","RA_OF_ASC_NODE":"261.7192","TLE_LINE2":"2 53414  53.2141 261.7192 0001578  65.7087 275.6139 15.08834296  1300","NORAD_CAT_ID":"53414","MEAN_ANOMALY":"275.6139","OBJECT_ID":"2022-097AC","ECCENTRICITY":"0.00015780","REV_AT_EPOCH":"130","BSTAR":"0.00203700000000","EPHEMERIS_TYPE":"0","MEAN_ELEMENT_THEORY":"SGP4","PERIOD":"95.438","OBJECT_NAME":"STARLINK-4304","DECAY_DATE":null,"TIME_SYSTEM":"UTC","LAUNCH_DATE":"2022-08-10","COUNTRY_CODE":"US","MEAN_MOTION_DOT":"0.00032275","INCLINATION":"53.2141","MEAN_MOTION_DDOT":"0.0000000000000","MEAN_MOTION":"15.08834296","ELEMENT_SET_NO":"999","APOAPSIS":"540.854","PERIAPSIS":"538.671","CENTER_NAME":"EARTH","GP_ID":"215727892","FILE":"3626396","SITE":"AFETR","OBJECT_TYPE":"PAYLOAD","TLE_LINE1":"1 53414U 22097AC  22293.91667824  .00032275  00000-0  20370-2 0  9991"},{"CENTER_NAME":"EARTH","GP_ID":"215728002","SITE":"AFETR","FILE":"3626396","TLE_LINE1":"1 53415U 22097AD  22293.91667824  .00030905  00000-0  19510-2 0  9994","OBJECT_TYPE":"PAYLOAD","APOAPSIS":"540.742","PERIAPSIS":"538.704","MEAN_MOTION":"15.08847387","ELEMENT_SET_NO":"999","MEAN_MOTION_DOT":"0.00030905","INCLINATION":"53.2139","MEAN_MOTION_DDOT":"0.0000000000000","COUNTRY_CODE":"US","EPHEMERIS_TYPE":"0","BSTAR":"0.00195100000000","DECAY_DATE":null,"OBJECT_NAME":"STARLINK-4479","MEAN_ELEMENT_THEORY":"SGP4","PERIOD":"95.437","LAUNCH_DATE":"2022-08-10","TIME_SYSTEM":"UTC","MEAN_ANOMALY":"291.3373","NORAD_CAT_ID":"53415","TLE_LINE2":"2 53415  53.2139 261.7197 0001473  69.9014 291.3373 15.08847387  1314","OBJECT_ID":"2022-097AD","REV_AT_EPOCH":"131","ECCENTRICITY":"0.00014730","SEMIMAJOR_AXIS":"6917.858","ARG_OF_PERICENTER":"69.9014","EPOCH":"2022-10-20T22:00:00.999936","REF_FRAME":"TEME","RCS_SIZE":"LARGE","RA_OF_ASC_NODE":"261.7197","CLASSIFICATION_TYPE":"U"},{"MEAN_MOTION":"15.08819773","ELEMENT_SET_NO":"999","MEAN_MOTION_DOT":"0.00029884","INCLINATION":"53.2163","MEAN_MOTION_DDOT":"0.0000000000000","CENTER_NAME":"EARTH","GP_ID":"215728165","TLE_LINE1":"1 53416U 22097AE  22293.91667824  .00029884  00000-0  18888-2 0  9996","OBJECT_TYPE":"PAYLOAD","FILE":"3626396","SITE":"AFETR","APOAPSIS":"540.911","PERIAPSIS":"538.703","NORAD_CAT_ID":"53416","TLE_LINE2":"2 53416  53.2163 261.7068 0001596  50.0508   6.0706 15.08819773  1302","MEAN_ANOMALY":"6.0706","ECCENTRICITY":"0.00015960","REV_AT_EPOCH":"130","OBJECT_ID":"2022-097AE","ARG_OF_PERICENTER":"50.0508","EPOCH":"2022-10-20T22:00:00.999936","SEMIMAJOR_AXIS":"6917.942","CLASSIFICATION_TYPE":"U","RA_OF_ASC_NODE":"261.7068","REF_FRAME":"TEME","RCS_SIZE":"LARGE","COUNTRY_CODE":"US","PERIOD":"95.439","MEAN_ELEMENT_THEORY":"SGP4","OBJECT_NAME":"STARLINK-4480","DECAY_DATE":null,"BSTAR":"0.00188880000000","EPHEMERIS_TYPE":"0","TIME_SYSTEM":"UTC","LAUNCH_DATE":"2022-08-10"},{"REF_FRAME":"TEME","RCS_SIZE":"LARGE","CLASSIFICATION_TYPE":"U","RA_OF_ASC_NODE":"261.7081","SEMIMAJOR_AXIS":"6917.906","EPOCH":"2022-10-20T22:00:00.999936","ARG_OF_PERICENTER":"51.8800","OBJECT_ID":"2022-097AF","REV_AT_EPOCH":"130","ECCENTRICITY":"0.00019100","MEAN_ANOMALY":"329.4317","NORAD_CAT_ID":"53417","TLE_LINE2":"2 53417  53.2156 261.7081 0001910  51.8800 329.4317 15.08831556  1307","LAUNCH_DATE":"2022-08-10","TIME_SYSTEM":"UTC","EPHEMERIS_TYPE":"0","BSTAR":"0.00189160000000","OBJECT_NAME":"STARLINK-4484","DECAY_DATE":null,"PERIOD":"95.438","MEAN_ELEMENT_THEORY":"SGP4","COUNTRY_CODE":"US","INCLINATION":"53.2156","MEAN_MOTION_DDOT":"0.0000000000000","MEAN_MOTION_DOT":"0.00029938","ELEMENT_SET_NO":"999","MEAN_MOTION":"15.08831556","APOAPSIS":"541.093","PERIAPSIS":"538.450","SITE":"AFETR","FILE":"3626396","OBJECT_TYPE":"PAYLOAD","TLE_LINE1":"1 53417U 22097AF  22293.91667824  .00029938  00000-0  18916-2 0  9999","CENTER_NAME":"EARTH","GP_ID":"215728706"},{"APOAPSIS":"417.776","PERIAPSIS":"416.455","CENTER_NAME":"EARTH","GP_ID":"215728310","SITE":"AFETR","FILE":"3626396","TLE_LINE1":"1 53418U 22097AG  22293.91667824  .00022459  00000-0  40277-3 0  9997","OBJECT_TYPE":"PAYLOAD","MEAN_MOTION_DOT":"0.00022459","INCLINATION":"53.2146","MEAN_MOTION_DDOT":"0.0000000000000","MEAN_MOTION":"15.49867596","ELEMENT_SET_NO":"999","EPHEMERIS_TYPE":"0","BSTAR":"0.00040277000000","OBJECT_NAME":"STARLINK-4481","DECAY_DATE":null,"PERIOD":"92.911","MEAN_ELEMENT_THEORY":"SGP4","LAUNCH_DATE":"2022-08-10","TIME_SYSTEM":"UTC","COUNTRY_CODE":"US","SEMIMAJOR_AXIS":"6795.250","EPOCH":"2022-10-20T22:00:00.999936","ARG_OF_PERICENTER":"99.9169","REF_FRAME":"TEME","RCS_SIZE":"LARGE","RA_OF_ASC_NODE":"254.1619","CLASSIFICATION_TYPE":"U","MEAN_ANOMALY":"101.4025","NORAD_CAT_ID":"53418","TLE_LINE2":"2 53418  53.2146 254.1619 0000972  99.9169 101.4025 15.49867596  1300","OBJECT_ID":"2022-097AG","REV_AT_EPOCH":"130","ECCENTRICITY":"0.00009720"},{"COUNTRY_CODE":"US","OBJECT_NAME":"STARLINK-4476","DECAY_DATE":null,"MEAN_ELEMENT_THEORY":"SGP4","PERIOD":"95.437","EPHEMERIS_TYPE":"0","BSTAR":"-0.00043585000000","LAUNCH_DATE":"2022-08-10","TIME_SYSTEM":"UTC","MEAN_ANOMALY":"352.8325","NORAD_CAT_ID":"53419","TLE_LINE2":"2 53419  53.2162 261.7076 0001638  48.5409 352.8325 15.08853199  1301","REV_AT_EPOCH":"130","ECCENTRICITY":"0.00016380","OBJECT_ID":"2022-097AH","EPOCH":"2022-10-20T22:00:00.999936","ARG_OF_PERICENTER":"48.5409","SEMIMAJOR_AXIS":"6917.840","CLASSIFICATION_TYPE":"U","RA_OF_ASC_NODE":"261.7076","REF_FRAME":"TEME","RCS_SIZE":"LARGE","GP_ID":"215727585","CENTER_NAME":"EARTH","TLE_LINE1":"1 53419U 22097AH  22293.91667824 -.00007220  00000-0 -43585-3 0  9994","OBJECT_TYPE":"PAYLOAD","SITE":"AFETR","FILE":"3626396","APOAPSIS":"540.838","PERIAPSIS":"538.572","MEAN_MOTION":"15.08853199","ELEMENT_SET_NO":"999","MEAN_MOTION_DOT":"-0.00007220","MEAN_MOTION_DDOT":"0.0000000000000","INCLINATION":"53.2162"},{"EPOCH":"2022-10-20T22:00:00.999936","ARG_OF_PERICENTER":"54.3225","SEMIMAJOR_AXIS":"6917.870","RA_OF_ASC_NODE":"261.7064","CLASSIFICATION_TYPE":"U","REF_FRAME":"TEME","RCS_SIZE":"LARGE","MEAN_ANOMALY":"46.9775","NORAD_CAT_ID":"53420","TLE_LINE2":"2 53420  53.2170 261.7064 0001535  54.3225  46.9775 15.08843328  1309","REV_AT_EPOCH":"130","ECCENTRICITY":"0.00015350","OBJECT_ID":"2022-097AJ","DECAY_DATE":null,"OBJECT_NAME":"STARLINK-4552","MEAN_ELEMENT_THEORY":"SGP4","PERIOD":"95.437","EPHEMERIS_TYPE":"0","BSTAR":"0.00168630000000","LAUNCH_DATE":"2022-08-10","TIME_SYSTEM":"UTC","COUNTRY_CODE":"US","MEAN_MOTION_DOT":"0.00026654","INCLINATION":"53.2170","MEAN_MOTION_DDOT":"0.0000000000000","MEAN_MOTION":"15.08843328","ELEMENT_SET_NO":"999","PERIAPSIS":"538.673","APOAPSIS":"540.797","CENTER_NAME":"EARTH","GP_ID":"215727748","TLE_LINE1":"1 53420U 22097AJ  22293.91667824  .00026654  00000-0  16863-2 0  9994","OBJECT_TYPE":"PAYLOAD","SITE":"AFETR","FILE":"3626396"}];
